QIANFAN-89              
1 63175U 25046S   25365.91130791  .00000270  00000+0  39876-3 0  9995
2 63175  88.9780 318.0547 0018535  70.6895 289.6259 13.50983466 49996
QIANFAN-90              
1 63176U 25046T   25365.86597761  .00000269  00000+0  39814-3 0  9994
2 63176  88.9780 318.0317 0015460  69.4354 290.8454 13.50983462 50003
QIANFAN-91              
1 66033U 25233A   25365.91910195  .00000173  00000+0  22342-3 0  9995
2 66033  88.9937  60.1576 0015177 348.9998  11.0823 13.57810924 10590
QIANFAN-92              
1 66034U 25233B   25365.89933009  .00000048  00000+0  52874-4 0  9997
2 66034  88.9923  60.1520 0014898 348.0154  12.0642 13.54067211 10599
QIANFAN-93              
1 66035U 25233C   25365.92143255  .00000058  00000+0  66011-4 0  9997
2 66035  88.9946  60.1596 0013630 348.6753  11.4092 13.55665654 10590
QIANFAN-94              
1 66036U 25233D   25365.87215347  .00000193  00000+0  21014-3 0  9997
2 66036  88.9945  60.1352 0014610 346.3771  13.6994 13.68547868 10601
QIANFAN-95              
1 66037U 25233E   25365.91318709  .00000402  00000+0  23216-3 0  9998
2 66037  88.9944  59.9026 0013548 349.7487  10.3417 14.07043084 10738
QIANFAN-96              
1 66038U 25233F   25365.87167259  .00000040  00000+0  39510-4 0  9999
2 66038  88.9940  60.1701 0014584 352.5429   7.5507 13.57235678 10585
